LEMUR-2-PETERG          
1 42841U 17042S   26068.48235713  .00023240  00000+0  81076-3 0  9993
2 42841  97.3980 253.6596 0003700 341.6938  18.4169 15.29611459473171
STARLINK-35513          
1 65930U 25225W   26068.54510961  .00024845  00000+0  84879-3 0  9993
2 65930  53.1585 166.5137 0001075  81.9087 278.2036 15.30176238 24388
